STARLINK-35850          
1 66352U 25254E   25338.16670139 -.02039953  00000+0 -28192-1 0  9999
2 66352  53.1595 317.6730 0001485  91.8394 112.9128 15.60099440  5491
STARLINK-35869          
1 66353U 25254F   25338.16670139 -.02038708  00000+0 -28180-1 0  9994
2 66353  53.1597 317.6686 0001533  94.2757 112.4043 15.60092020  5542
STARLINK-35895          
1 66354U 25254G   25338.16670139 -.00247604  00000+0 -45648-2 0  9999
2 66354  53.1598 318.0681 0001070  78.4562 290.0602 15.49441290  5546
STARLINK-35861          
1 66355U 25254H   25338.16670139 -.02049013  00000+0 -28336-1 0  9990
2 66355  53.1594 317.6605 0001562  84.6514 125.8604 15.60098119  5544
STARLINK-35851          
1 66356U 25254J   25338.16670139 -.02044360  00000+0 -28266-1 0  9993
2 66356  53.1594 317.6559 0001554  95.4296 117.0005 15.60094984  5545
STARLINK-35817          
1 66357U 25254K   25338.16670139 -.02046068  00000+0 -28286-1 0  9993
2 66357  53.1593 317.6520 0001429  96.3935 117.9427 15.60102643  5543
STARLINK-35807          
1 66358U 25254L   25338.16670139 -.02044257  00000+0 -28258-1 0  9991
2 66358  53.1594 317.6476 0001473  93.7102 122.5433 15.60101168  5541
STARLINK-35805          
1 66359U 25254M   25338.16670139 -.02042020  00000+0 -28225-1 0  9992
2 66359  53.1592 317.6442 0001352  98.6121 119.5590 15.60100409  5518
STARLINK-35823          
1 66360U 25254N   25338.16670139 -.02043961  00000+0 -28254-1 0  9991
2 66360  53.1594 317.6354 0001327  96.9140 125.0894 15.60102534  5541
STARLINK-35813          
1 66361U 25254P   25338.16670139 -.02043220  00000+0 -28243-1 0  9998
2 66361  53.1590 317.6400 0001351  97.5976 122.4891 15.60102038  5548
STARLINK-35822          
1 66362U 25254Q   25338.16670139 -.02046969  00000+0 -28305-1 0  9991
2 66362  53.1592 317.6278 0001557  92.1802 133.6668 15.60097143  5547
STARLINK-35806          
1 66363U 25254R   25338.16670139 -.02044051  00000+0 -28256-1 0  9997
2 66363  53.1591 317.6316 0001453  93.5502 130.3710 15.60101049  5517
